ONEWEB-0328             
1 49197U 21083M   25198.49706739  .00000118  00000+0  28834-3 0  9991
2 49197  87.8946  26.6980 0001720  85.9172 274.2153 13.13471224186969
ONEWEB-0331             
1 49198U 21083N   25198.53193945  .00000089  00000+0  19328-3 0  9991
2 49198  87.9119  41.9335 0001415  89.7518 270.3776 13.18685348185904
ONEWEB-0333             
1 49199U 21083P   25198.49198831 -.00000036  00000+0 -13285-3 0  9996
2 49199  87.8957  26.7679 0001881  89.9849 270.1496 13.13471245186971
ONEWEB-0334             
1 49200U 21083Q   25198.37327701  .00000053  00000+0  97542-4 0  9992
2 49200  87.9274 341.1672 0002897  92.8443 267.3022 13.20771440192591
ONEWEB-0335             
1 49201U 21083R   25198.48691021 -.00000176  00000+0 -51779-3 0  9993
2 49201  87.8954  26.7572 0001629  93.0231 267.1084 13.13471879186988
ONEWEB-0336             
1 49202U 21083S   25198.53430605 -.00000024  00000+0 -99324-4 0  9990
2 49202  87.8960  26.7407 0001839  92.8526 267.2814 13.13468351186983
ONEWEB-0337             
1 49203U 21083T   25198.46814787 -.00000237  00000+0 -68469-3 0  9991
2 49203  87.8959  26.7534 0001627  85.5742 274.5573 13.13470420186979
ONEWEB-0338             
1 49204U 21083U   25198.42378379  .00000127  00000+0  28008-3 0  9991
2 49204  87.9283 341.1496 0002178  93.3187 266.8196 13.20770264192625
ONEWEB-0339             
1 49205U 21083V   25198.47674602 -.00000292  00000+0 -83579-3 0  9994
2 49205  87.8956  26.7383 0001850  85.1293 275.0047 13.13471242186958
ONEWEB-0340             
1 49206U 21083W   25198.51874533  .00000029  00000+0  39784-4 0  9991
2 49206  87.9123  41.9397 0001755  88.0871 272.0462 13.18684169185864
ONEWEB-0341             
1 49207U 21083X   25198.52535312 -.00000018  00000+0 -79540-4 0  9996
2 49207  87.9126  41.9489 0001653  68.9547 291.1762 13.18685321185882
ONEWEB-0342             
1 49208U 21083Y   25198.43009963  .00000100  00000+0  21447-3 0  9997
2 49208  87.9269 341.1243 0002005  95.1377 264.9985 13.20770122192597
ONEWEB-0343             
1 49209U 21083Z   25198.52124313  .00000017  00000+0  10973-4 0  9995
2 49209  87.9125  41.9367 0001962  68.8936 291.2405 13.18686578185938
ONEWEB-0344             
1 49210U 21083AA  25198.47166795 -.00000474  00000+0 -13324-2 0  9991
2 49210  87.8959  26.7793 0001532  76.3761 283.7538 13.13469243186950
ONEWEB-0345             
1 49211U 21083AB  25198.46320328 -.00000154  00000+0 -45698-3 0  9990
2 49211  87.8957  26.7330 0001507  74.9481 285.1815 13.13470759186960
ONEWEB-0346             
1 49212U 21083AC  25198.53029158 -.00000036  00000+0 -12494-3 0  9993
2 49212  87.9124  41.9568 0001480 105.9185 254.2110 13.18684658185870
ONEWEB-0348             
1 49213U 21083AD  25198.42064121  .00000099  00000+0  21156-3 0  9993
2 49213  87.9277 341.1355 0001271  99.1004 261.0273 13.20772441192629
ONEWEB-0350             
1 49214U 21083AE  25198.47252524 -.00000315  00000+0 -89815-3 0  9994
2 49214  87.8956  26.7225 0001592  81.3032 278.8278 13.13471220186992
ONEWEB-0351             
1 49215U 21083AF  25198.41418107  .00000144  00000+0  32120-3 0  9995
2 49215  87.9279 341.1195 0002493  82.3727 277.7689 13.20772615192581
ONEWEB-0352             
1 49216U 21083AG  25198.52923045  .00000094  00000+0  22293-3 0  9994
2 49216  87.8960  26.7530 0002186  80.7657 279.3719 13.13470324187096
ONEWEB-0354             
1 49217U 21083AH  25198.36380410  .00000068  00000+0  13504-3 0  9996
2 49217  87.9282 341.1282 0001605  92.2931 267.8386 13.20770586192618
ONEWEB-0355             
1 49218U 21083AJ  25198.48197217 -.00000236  00000+0 -68136-3 0  9991
2 49218  87.8958  26.7605 0001834  81.4109 278.7227 13.13470495186968
ONEWEB-0357             
1 49219U 21083AK  25198.43640833  .00000096  00000+0  20393-3 0  9999
2 49219  87.9274 341.1189 0001952  91.3805 268.7552 13.20770369192627
ONEWEB-0332             
1 49279U 21090A   25198.45261903  .00000001  00000+0 -31874-4 0  9996
2 49279  87.9051 356.3212 0002111  94.2077 265.9294 13.14503611183609
ONEWEB-0347             
1 49280U 21090B   25198.42693410  .00000113  00000+0  24645-3 0  9997
2 49280  87.9282 341.1301 0002193 102.7599 257.3779 13.20770256186853
ONEWEB-0349             
1 49281U 21090C   25198.38274337  .00000035  00000+0  54835-4 0  9994
2 49281  87.9277 341.1444 0001896  93.3462 266.7888 13.20770505185636
ONEWEB-0353             
1 49282U 21090D   25198.44468946  .00000130  00000+0  31552-3 0  9999
2 49282  87.9051 356.3097 0002080  96.3261 263.8105 13.14503538183603
ONEWEB-0356             
1 49283U 21090E   25198.45692470  .00000036  00000+0  57280-4 0  9994
2 49283  87.9275 341.1202 0001842 125.1163 235.0143 13.20771329185640
ONEWEB-0358             
1 49284U 21090F   25198.41116027  .00000098  00000+0  21029-3 0  9999
2 49284  87.9275 341.1190 0001727  98.4400 261.6929 13.20770948186368
ONEWEB-0359             
1 49285U 21090G   25198.40799300  .00001132  00000+0  27519-2 0  9999
2 49285  87.9276 341.1321 0001460  93.2370 266.8930 13.20781884186347
ONEWEB-0360             
1 49286U 21090H   25198.39853112  .00000060  00000+0  11529-3 0  9994
2 49286  87.9279 341.1407 0001736  95.0129 265.1202 13.20771011185652
ONEWEB-0361             
1 49287U 21090J   25198.37959003  .00000021  00000+0  18652-4 0  9991
2 49287  87.9279 341.1397 0001838 101.5940 258.5400 13.20770516186104
ONEWEB-0362             
1 49288U 21090K   25198.52190734  .00000078  00000+0  16233-3 0  9991
2 49288  87.9219  11.5168 0001921  85.4504 274.6849 13.19724412182779
ONEWEB-0363             
1 49289U 21090L   25198.39537564  .00000064  00000+0  12658-3 0  9995
2 49289  87.9280 341.1318 0001721 109.2336 250.8983 13.20770683186113
ONEWEB-0364             
1 49290U 21090M   25198.43326529  .00000087  00000+0  18209-3 0  9992
2 49290  87.9278 341.1541 0001884 101.5301 258.6044 13.20771636187256
ONEWEB-0365             
1 49291U 21090N   25198.45556830 -.00000029  00000+0 -10504-3 0  9993
2 49291  87.9214  11.4849 0001968  90.4266 269.7092 13.19724404182276
ONEWEB-0366             
1 49292U 21090P   25198.44152245  .00000184  00000+0  46121-3 0  9999
2 49292  87.9052 356.3231 0001784  95.4011 264.7322 13.14503366183585
ONEWEB-0367             
1 49293U 21090Q   25198.39379214  .00000051  00000+0  92417-4 0  9994
2 49293  87.9279 341.1275 0001972  91.5994 268.5365 13.20770582185633
ONEWEB-0368             
1 49294U 21090R   25198.44270311  .00000078  00000+0  16004-3 0  9995
2 49294  87.9285 341.1517 0002509 111.4308 248.7093 13.20770345186791
ONEWEB-0369             
1 49295U 21090S   25198.45081312  .00000051  00000+0  96309-4 0  9996
2 49295  87.9221  11.5158 0001951  91.8295 268.3061 13.19723571182265
ONEWEB-0370             
1 49296U 21090T   25198.40326711  .00000064  00000+0  12602-3 0  9994
2 49296  87.9283 341.1309 0001756  86.8865 273.2469 13.20771077185675
ONEWEB-0371             
1 49297U 21090U   25198.45872208  .00000040  00000+0  67563-4 0  9998
2 49297  87.9222  11.5042 0001933  89.0783 271.0571 13.19725150182308
ONEWEB-0372             
1 49298U 21090V   25198.39208782  .00000027  00000+0  34109-4 0  9997
2 49298  87.9276 341.1421 0002026  96.9966 263.1397 13.20771157185643
ONEWEB-0373             
1 49299U 21090W   25198.41904992  .00000171  00000+0  38855-3 0  9998
2 49299  87.9277 341.1475 0001891 103.8642 256.2702 13.20770418186836
ONEWEB-0374             
1 49300U 21090X   25198.42882473  .00000336  00000+0  87305-3 0  9998
2 49300  87.9050 356.3057 0001900 113.4969 246.6360 13.14502022183581
ONEWEB-0375             
1 49301U 21090Y   25198.40642092  .00000083  00000+0  17212-3 0  9997
2 49301  87.9279 341.1285 0001554 115.1160 245.0135 13.20771125186335
ONEWEB-0376             
1 49302U 21090Z   25198.45716137  .00000038  00000+0  62887-4 0  9994
2 49302  87.9215  11.4872 0002140  90.5355 269.6022 13.19726679182301
ONEWEB-0377             
1 49303U 21090AA  25198.46811111  .00000064  00000+0  12575-3 0  9991
2 49303  87.9281 341.1094 0001640  93.6230 266.5091 13.20772973186333
ONEWEB-0378             
1 49304U 21090AB  25198.41444498  .00009003  00000+0  22099-1 0  9999
2 49304  87.9285 341.1298 0002059 100.1234 260.0132 13.20743843185593
ONEWEB-0379             
1 49305U 21090AC  25198.42407539  .00000273  00000+0  70137-3 0  9994
2 49305  87.9049 356.3113 0001923  97.1903 262.9445 13.14503865183589
ONEWEB-0380             
1 49306U 21090AD  25198.45398878 -.00000014  00000+0 -66416-4 0  9994
2 49306  87.9216  11.5167 0001661  92.2930 267.8393 13.19725781182279
ONEWEB-0381             
1 49307U 21090AE  25198.38904665  .00000026  00000+0  32690-4 0  9992
2 49307  87.9285 341.1336 0001684 103.8216 256.3104 13.20771850185633
ONEWEB-0382             
1 49308U 21090AF  25198.45218705  .00000021  00000+0  19238-4 0  9992
2 49308  87.9277 341.1144 0001828 107.7444 252.3889 13.20770339185635
ONEWEB-0383             
1 49309U 21090AG  25198.41773002  .00000174  00000+0  43568-3 0  9996
2 49309  87.9046 356.2922 0001951  99.7526 260.3824 13.14503370183615
ONEWEB-0384             
1 49310U 21090AH  25198.44794625  .00000066  00000+0  12978-3 0  9996
2 49310  87.9287 341.1331 0001975 114.2353 245.8986 13.20786604185640
ONEWEB-0385             
1 49311U 21090AJ  25198.44428664  .00000081  00000+0  16820-3 0  9991
2 49311  87.9273 341.1329 0001837 101.4341 258.6999 13.20771066185614
ONEWEB-0386             
1 49312U 21090AK  25198.38589697  .00000017  00000+0  11071-4 0  9992
2 49312  87.9276 341.1147 0001907 105.9020 254.2324 13.20772275185625
ONEWEB-0387             
1 49313U 21090AL  25198.44587853  .00000042  00000+0  72303-4 0  9995
2 49313  87.9266 341.1620 0001567 101.4306 258.7003 13.20770285185634
ONEWEB-0388             
1 49314U 21090AM  25198.52506633  .00000030  00000+0  43817-4 0  9997
2 49314  87.9220  11.5079 0001824  96.1975 263.9365 13.19725912182270
